ONEWEB-0309             
1 49095U 21075W   26193.90732261  .00000072  00000+0  15293-3 0  9994
2 49095  87.9142   0.7459 0002336  93.9975 266.1424 13.17650550236965
ONEWEB-0310             
1 49096U 21075X   26193.92754222 -.00000606  00000+0 -17212-2 0  9995
2 49096  87.9004 345.5582 0001583  94.4587 265.6722 13.12433875238565
ONEWEB-0311             
1 49097U 21075Y   26193.91407441  .00000048  00000+0  91326-4 0  9991
2 49097  87.9139   0.7443 0001754  78.2080 281.9248 13.17647875237014
ONEWEB-0312             
1 49098U 21075Z   26193.92926762  .00000081  00000+0  17613-3 0  9998
2 49098  87.9132   0.7524 0001995  83.9325 276.2034 13.17648752236991
ONEWEB-0313             
1 49099U 21075AA  26193.93418449  .00000074  00000+0  15795-3 0  9999
2 49099  87.9133   0.7552 0001802  87.9921 272.1417 13.17650529236981
ONEWEB-0314             
1 49100U 21075AB  26193.90056153  .00000996  00000+0  25301-2 0  9995
2 49100  87.9184   0.7357 0001634  87.2390 272.8928 13.17663962236955
ONEWEB-0315             
1 49101U 21075AC  26193.90042998 -.00000180  00000+0 -53563-3 0  9997
2 49101  87.8962 345.5323 0001661  75.7943 284.3370 13.12441796238548
ONEWEB-0316             
1 49102U 21075AD  26193.88108438  .00000115  00000+0  25966-3 0  9999
2 49102  87.9185 330.3463 0001985  98.7611 261.3746 13.18686301240599
ONEWEB-0317             
1 49103U 21075AE  26193.90381772 -.00000297  00000+0 -86113-3 0  9991
2 49103  87.8969 345.5544 0002441 112.1357 248.0031 13.12441957238566
ONEWEB-0318             
1 49104U 21075AF  26194.33283479  .00000031  00000+0  45913-4 0  9993
2 49104  87.9191 330.2583 0001790  92.8924 267.2414 13.18686528240617
ONEWEB-0319             
1 49105U 21075AG  26193.91576010 -.00000049  00000+0 -15834-3 0  9992
2 49105  87.9143   0.7488 0001591  77.3940 282.7369 13.17647562236994
ONEWEB-0323             
1 49106U 21075AH  26193.88518928  .00000317  00000+0  84706-3 0  9993
2 49106  87.8958 345.5407 0001653  73.2539 286.8771 13.12441827237924
ONEWEB-0329             
1 49107U 21075AJ  26193.92419141  .00000100  00000+0  22398-3 0  9995
2 49107  87.9145   0.7484 0001934  88.0888 272.0465 13.17651169236970
ONEWEB-0330             
1 49108U 21075AK  26193.92769386  .00000039  00000+0  68149-4 0  9991
2 49108  87.9134   0.7592 0001961  88.0311 272.1045 13.17646993237010
ONEWEB-0292             
1 49186U 21083A   26194.29446678 -.00000192  00000+0 -56008-3 0  9995
2 49186  87.8971 315.0425 0001845  96.7850 263.3489 13.13470828234352
ONEWEB-0303             
1 49187U 21083B   26194.32944856  .00000031  00000+0  46722-4 0  9994
2 49187  87.9189 330.2573 0001793  93.3125 266.8213 13.18684149233426
ONEWEB-0306             
1 49188U 21083C   26194.31934226  .00000073  00000+0  15251-3 0  9992
2 49188  87.9203 330.2474 0002106 103.6302 256.5065 13.18684690233461
ONEWEB-0307             
1 49189U 21083D   26194.28853199 -.00000387  00000+0 -10958-2 0  9996
2 49189  87.8972 315.0413 0001964  95.8695 264.2658 13.13469936234358
ONEWEB-0320             
1 49190U 21083E   26193.88430748  .00000048  00000+0  88957-4 0  9992
2 49190  87.9184 330.3503 0001897  99.3863 260.7484 13.18687438233369
ONEWEB-0321             
1 49191U 21083F   26194.18562243 -.00000009  00000+0 -54402-4 0  9990
2 49191  87.9189 269.2544 0002021 104.2946 255.8412 13.20772000240264
ONEWEB-0322             
1 49192U 21083G   26194.28431666 -.00000324  00000+0 -92336-3 0  9993
2 49192  87.8976 315.0412 0002014 113.9530 246.1810 13.13470090234343
ONEWEB-0324             
1 49193U 21083H   26194.31260409  .00000031  00000+0  46700-4 0  9991
2 49193  87.9198 330.2551 0002065  94.7207 265.4161 13.18686914233449
ONEWEB-0325             
1 49194U 21083J   26194.31596774  .00000023  00000+0  24962-4 0  9996
2 49194  87.9187 330.2600 0001844 100.7313 259.4027 13.18687953233452
ONEWEB-0326             
1 49195U 21083K   26194.33129892  .00000030  00000+0  44225-4 0  9994
2 49195  87.9196 330.2568 0001661  92.0007 268.1315 13.18686059233448
ONEWEB-0327             
1 49196U 21083L   26194.33101860  .00000034  00000+0  53809-4 0  9992
2 49196  87.9182 330.2592 0001494  92.4546 267.6758 13.18685987233463
ONEWEB-0328             
1 49197U 21083M   26194.27415894 -.00000141  00000+0 -41985-3 0  9993
2 49197  87.8988 315.0191 0002065  98.9694 261.1669 13.13469742234323
ONEWEB-0331             
1 49198U 21083N   26194.32440018 -.00000015  00000+0 -69658-4 0  9994
2 49198  87.9194 330.2532 0001750  86.4104 273.7229 13.18684564233450
ONEWEB-0333             
1 49199U 21083P   26194.26908088  .00000041  00000+0  78712-4 0  9992
2 49199  87.8977 315.0441 0001882 100.3095 259.8246 13.13469417234335
ONEWEB-0334             
1 49200U 21083Q   26194.19991483  .00000039  00000+0  62984-4 0  9999
2 49200  87.9191 269.2610 0002351 117.0714 243.0660 13.20769275240223
ONEWEB-0335             
1 49201U 21083R   26194.26399900  .00000268  00000+0  69959-3 0  9996
2 49201  87.8974 315.0422 0001781  96.1932 263.9400 13.13466407234340
