OBJECT_NAME,OBJECT_ID,EPOCH,MEAN_MOTION,ECCENTRICITY,INCLINATION,RA_OF_ASC_NODE,ARG_OF_PERICENTER,MEAN_ANOMALY,EPHEMERIS_TYPE,CLASSIFICATION_TYPE,NORAD_CAT_ID,ELEMENT_SET_NO,REV_AT_EPOCH,BSTAR,MEAN_MOTION_DOT,MEAN_MOTION_DDOT
ONEWEB-0309,2021-075W,2026-07-12T21:46:32.673504,13.17650550,.00023368,87.9142,0.7459,93.9975,266.1424,0,U,49095,999,23696,.15292917E-3,.72E-6,0
ONEWEB-0310,2021-075X,2026-07-12T22:15:39.647808,13.12433875,.00015838,87.9004,345.5582,94.4587,265.6722,0,U,49096,999,23856,-.17212266E-2,-.606E-5,0
ONEWEB-0311,2021-075Y,2026-07-12T21:56:16.029024,13.17647875,.00017548,87.9139,0.7443,78.2080,281.9248,0,U,49097,999,23701,.91326449E-4,.48E-6,0
ONEWEB-0312,2021-075Z,2026-07-12T22:18:08.722368,13.17648752,.00019958,87.9132,0.7524,83.9325,276.2034,0,U,49098,999,23699,.1761308E-3,.81E-6,0
ONEWEB-0313,2021-075AA,2026-07-12T22:25:13.539936,13.17650529,.00018029,87.9133,0.7552,87.9921,272.1417,0,U,49099,999,23698,.15794735E-3,.74E-6,0
ONEWEB-0314,2021-075AB,2026-07-12T21:36:48.516192,13.17663962,.00016341,87.9184,0.7357,87.2390,272.8928,0,U,49100,999,23695,.2530115E-2,.996E-5,0
ONEWEB-0315,2021-075AC,2026-07-12T21:36:37.150272,13.12441796,.00016612,87.8962,345.5323,75.7943,284.3370,0,U,49101,999,23854,-.53562581E-3,-.18E-5,0
ONEWEB-0316,2021-075AD,2026-07-12T21:08:45.690432,13.18686301,.00019855,87.9185,330.3463,98.7611,261.3746,0,U,49102,999,24059,.25966233E-3,.115E-5,0
ONEWEB-0317,2021-075AE,2026-07-12T21:41:29.851008,13.12441957,.00024418,87.8969,345.5544,112.1357,248.0031,0,U,49103,999,23856,-.86113359E-3,-.297E-5,0
ONEWEB-0318,2021-075AF,2026-07-13T07:59:16.925856,13.18686528,.00017908,87.9191,330.2583,92.8924,267.2414,0,U,49104,999,24061,.45912876E-4,.31E-6,0
ONEWEB-0319,2021-075AG,2026-07-12T21:58:41.672640,13.17647562,.00015919,87.9143,0.7488,77.3940,282.7369,0,U,49105,999,23699,-.1583389E-3,-.49E-6,0
ONEWEB-0323,2021-075AH,2026-07-12T21:14:40.353792,13.12441827,.00016538,87.8958,345.5407,73.2539,286.8771,0,U,49106,999,23792,.8470573E-3,.317E-5,0
ONEWEB-0329,2021-075AJ,2026-07-12T22:10:50.137824,13.17651169,.00019349,87.9145,0.7484,88.0888,272.0465,0,U,49107,999,23697,.22398411E-3,.1E-5,0
ONEWEB-0330,2021-075AK,2026-07-12T22:15:52.749504,13.17646993,.00019616,87.9134,0.7592,88.0311,272.1045,0,U,49108,999,23701,.68149176E-4,.39E-6,0
ONEWEB-0292,2021-083A,2026-07-13T07:04:01.929792,13.13470828,.0001845,87.8971,315.0425,96.7850,263.3489,0,U,49186,999,23435,-.56008095E-3,-.192E-5,0
ONEWEB-0303,2021-083B,2026-07-13T07:54:24.355584,13.18684149,.00017933,87.9189,330.2573,93.3125,266.8213,0,U,49187,999,23342,.46721726E-4,.31E-6,0
ONEWEB-0306,2021-083C,2026-07-13T07:39:51.171264,13.18684690,.00021065,87.9203,330.2474,103.6302,256.5065,0,U,49188,999,23346,.15250862E-3,.73E-6,0
ONEWEB-0307,2021-083D,2026-07-13T06:55:29.163936,13.13469936,.00019645,87.8972,315.0413,95.8695,264.2658,0,U,49189,999,23435,-.10957703E-2,-.387E-5,0
ONEWEB-0320,2021-083E,2026-07-12T21:13:24.166272,13.18687438,.00018977,87.9184,330.3503,99.3863,260.7484,0,U,49190,999,23336,.88956814E-4,.48E-6,0
ONEWEB-0321,2021-083F,2026-07-13T04:27:17.777952,13.20772000,.00020219,87.9189,269.2544,104.2946,255.8412,0,U,49191,999,24026,-.54402044E-4,-.9E-7,0
ONEWEB-0322,2021-083G,2026-07-13T06:49:24.959424,13.13470090,.0002014,87.8976,315.0412,113.9530,246.1810,0,U,49192,999,23434,-.92336152E-3,-.324E-5,0
ONEWEB-0324,2021-083H,2026-07-13T07:30:08.993376,13.18686914,.0002065,87.9198,330.2551,94.7207,265.4161,0,U,49193,999,23344,.46699747E-4,.31E-6,0
ONEWEB-0325,2021-083J,2026-07-13T07:34:59.612736,13.18687953,.0001844,87.9187,330.2600,100.7313,259.4027,0,U,49194,999,23345,.24961824E-4,.23E-6,0
ONEWEB-0326,2021-083K,2026-07-13T07:57:04.226688,13.18686059,.00016613,87.9196,330.2568,92.0007,268.1315,0,U,49195,999,23344,.44225288E-4,.3E-6,0
ONEWEB-0327,2021-083L,2026-07-13T07:56:40.007040,13.18685987,.00014949,87.9182,330.2592,92.4546,267.6758,0,U,49196,999,23346,.53809373E-4,.34E-6,0
ONEWEB-0328,2021-083M,2026-07-13T06:34:47.332416,13.13469742,.00020653,87.8988,315.0191,98.9694,261.1669,0,U,49197,999,23432,-.41985339E-3,-.141E-5,0
ONEWEB-0331,2021-083N,2026-07-13T07:47:08.175552,13.18684564,.00017504,87.9194,330.2532,86.4104,273.7229,0,U,49198,999,23345,-.69658061E-4,-.15E-6,0
ONEWEB-0333,2021-083P,2026-07-13T06:27:28.588032,13.13469417,.00018829,87.8977,315.0441,100.3095,259.8246,0,U,49199,999,23433,.78711915E-4,.41E-6,0
ONEWEB-0334,2021-083Q,2026-07-13T04:47:52.641312,13.20769275,.00023518,87.9191,269.2610,117.0714,243.0660,0,U,49200,999,24022,.62984431E-4,.39E-6,0
ONEWEB-0335,2021-083R,2026-07-13T06:20:09.513600,13.13466407,.00017811,87.8974,315.0422,96.1932,263.9400,0,U,49201,999,23434,.69958552E-3,.268E-5,0
